{
  "type": "FeatureCollection",
  "features": [
    {
      "type": "Feature",
      "properties": {
        "norad_id": 66969,
        "name": "STARLINK-36149",
        "group": "last-30-days",
        "lat": -13.892421662374039,
        "lon": -55.638300946521255,
        "alt_km": 346.17069673696096,
        "timestamp": "2025-12-22T05:49:02.188145+00:00",
        "meta_object_name": "STARLINK-36149",
        "meta_object_id": "2025-288L",
        "meta_epoch": "2025-12-21T20:00:01.999008",
        "meta_mean_motion": 15.75823452,
        "meta_eccentricity": 0.0001787,
        "meta_inclination": 43.0005,
        "meta_ra_of_asc_node": 111.4529,
        "meta_arg_of_pericenter": 283.0258,
        "meta_mean_anomaly": 114.9588,
        "meta_ephemeris_type": 0,
        "meta_classification_type": "U",
        "meta_norad_cat_id": 66969,
        "meta_element_set_no": 999,
        "meta_rev_at_epoch": 329,
        "meta_bstar": -0.0071818,
        "meta_mean_motion_dot": -0.01030768,
        "meta_mean_motion_ddot": 0,
        "tle_line1": "1 66969U 25288L   25355.83335647 -.01030768  00000+0 -71818-2 0  9993",
        "tle_line2": "2 66969  43.0005 111.4529 0001787 283.0258 114.9588 15.75823452  3296"
      },
      "geometry": {
        "type": "Point",
        "coordinates": [
          -55.638300946521255,
          -13.892421662374039
        ]
      }
    },
    {
      "type": "Feature",
      "properties": {
        "norad_id": 66970,
        "name": "STARLINK-35703",
        "group": "last-30-days",
        "lat": -18.83890956276708,
        "lon": -49.573030116918346,
        "alt_km": 346.22169719433896,
        "timestamp": "2025-12-22T05:49:02.188155+00:00",
        "meta_object_name": "STARLINK-35703",
        "meta_object_id": "2025-288M",
        "meta_epoch": "2025-12-21T20:00:01.999008",
        "meta_mean_motion": 15.7537663,
        "meta_eccentricity": 0.0001487,
        "meta_inclination": 43.0009,
        "meta_ra_of_asc_node": 111.4322,
        "meta_arg_of_pericenter": 271.8955,
        "meta_mean_anomaly": 134.0421,
        "meta_ephemeris_type": 0,
        "meta_classification_type": "U",
        "meta_norad_cat_id": 66970,
        "meta_element_set_no": 999,
        "meta_rev_at_epoch": 329,
        "meta_bstar": -0.0034617,
        "meta_mean_motion_dot": -0.0050888,
        "meta_mean_motion_ddot": 0,
        "tle_line1": "1 66970U 25288M   25355.83335647 -.00508880  00000+0 -34617-2 0  9995",
        "tle_line2": "2 66970  43.0009 111.4322 0001487 271.8955 134.0421 15.75376630  3299"
      },
      "geometry": {
        "type": "Point",
        "coordinates": [
          -49.573030116918346,
          -18.83890956276708
        ]
      }
    },
    {
      "type": "Feature",
      "properties": {
        "norad_id": 66971,
        "name": "STARLINK-35678",
        "group": "last-30-days",
        "lat": -8.805005090871907,
        "lon": -61.44221670755602,
        "alt_km": 345.3701706995953,
        "timestamp": "2025-12-22T05:49:02.188166+00:00",
        "meta_object_name": "STARLINK-35678",
        "meta_object_id": "2025-288N",
        "meta_epoch": "2025-12-21T20:00:01.999008",
        "meta_mean_motion": 15.76418148,
        "meta_eccentricity": 0.0001593,
        "meta_inclination": 43.0009,
        "meta_ra_of_asc_node": 111.4741,
        "meta_arg_of_pericenter": 284.2001,
        "meta_mean_anomaly": 105.5781,
        "meta_ephemeris_type": 0,
        "meta_classification_type": "U",
        "meta_norad_cat_id": 66971,
        "meta_element_set_no": 999,
        "meta_rev_at_epoch": 329,
        "meta_bstar": -0.010379,
        "meta_mean_motion_dot": -0.01491695,
        "meta_mean_motion_ddot": 0,
        "tle_line1": "1 66971U 25288N   25355.83335647 -.01491695  00000+0 -10379-1 0  9990",
        "tle_line2": "2 66971  43.0009 111.4741 0001593 284.2001 105.5781 15.76418148  3297"
      },
      "geometry": {
        "type": "Point",
        "coordinates": [
          -61.44221670755602,
          -8.805005090871907
        ]
      }
    },
    {
      "type": "Feature",
      "properties": {
        "norad_id": 66972,
        "name": "STARLINK-34846",
        "group": "last-30-days",
        "lat": -10.085351458134383,
        "lon": -60.0119476164471,
        "alt_km": 345.4718133275692,
        "timestamp": "2025-12-22T05:49:02.188176+00:00",
        "meta_object_name": "STARLINK-34846",
        "meta_object_id": "2025-288P",
        "meta_epoch": "2025-12-21T20:00:01.999008",
        "meta_mean_motion": 15.76218088,
        "meta_eccentricity": 0.0001589,
        "meta_inclination": 43.0007,
        "meta_ra_of_asc_node": 111.4687,
        "meta_arg_of_pericenter": 278.3294,
        "meta_mean_anomaly": 113.5414,
        "meta_ephemeris_type": 0,
        "meta_classification_type": "U",
        "meta_norad_cat_id": 66972,
        "meta_element_set_no": 999,
        "meta_rev_at_epoch": 329,
        "meta_bstar": -0.0092795,
        "meta_mean_motion_dot": -0.01340118,
        "meta_mean_motion_ddot": 0,
        "tle_line1": "1 66972U 25288P   25355.83335647 -.01340118  00000+0 -92795-2 0  9997",
        "tle_line2": "2 66972  43.0007 111.4687 0001589 278.3294 113.5414 15.76218088  3291"
      },
      "geometry": {
        "type": "Point",
        "coordinates": [
          -60.0119476164471,
          -10.085351458134383
        ]
      }
    },
    {
      "type": "Feature",
      "properties": {
        "norad_id": 66973,
        "name": "STARLINK-35778",
        "group": "last-30-days",
        "lat": -11.361877745816065,
        "lon": -58.5672791650258,
        "alt_km": 345.79386266555866,
        "timestamp": "2025-12-22T05:49:02.188185+00:00",
        "meta_object_name": "STARLINK-35778",
        "meta_object_id": "2025-288Q",
        "meta_epoch": "2025-12-21T20:00:01.999008",
        "meta_mean_motion": 15.76087857,
        "meta_eccentricity": 0.0001784,
        "meta_inclination": 43.0008,
        "meta_ra_of_asc_node": 111.4637,
        "meta_arg_of_pericenter": 280.9122,
        "meta_mean_anomaly": 113.0138,
        "meta_ephemeris_type": 0,
        "meta_classification_type": "U",
        "meta_norad_cat_id": 66973,
        "meta_element_set_no": 999,
        "meta_rev_at_epoch": 329,
        "meta_bstar": -0.0087744,
        "meta_mean_motion_dot": -0.01268049,
        "meta_mean_motion_ddot": 0,
        "tle_line1": "1 66973U 25288Q   25355.83335647 -.01268049  00000+0 -87744-2 0  9998",
        "tle_line2": "2 66973  43.0008 111.4637 0001784 280.9122 113.0138 15.76087857  3290"
      },
      "geometry": {
        "type": "Point",
        "coordinates": [
          -58.5672791650258,
          -11.361877745816065
        ]
      }
    },
    {
      "type": "Feature",
      "properties": {
        "norad_id": 66974,
        "name": "STARLINK-35780",
        "group": "last-30-days",
        "lat": -12.631756025323588,
        "lon": -57.10904305699325,
        "alt_km": 346.0050349707999,
        "timestamp": "2025-12-22T05:49:02.188195+00:00",
        "meta_object_name": "STARLINK-35780",
        "meta_object_id": "2025-288R",
        "meta_epoch": "2025-12-21T20:00:01.999008",
        "meta_mean_motion": 15.75979884,
        "meta_eccentricity": 0.0001534,
        "meta_inclination": 43.0007,
        "meta_ra_of_asc_node": 111.4587,
        "meta_arg_of_pericenter": 281.4376,
        "meta_mean_anomaly": 114.5034,
        "meta_ephemeris_type": 0,
        "meta_classification_type": "U",
        "meta_norad_cat_id": 66974,
        "meta_element_set_no": 999,
        "meta_rev_at_epoch": 329,
        "meta_bstar": -0.008225,
        "meta_mean_motion_dot": -0.01171263,
        "meta_mean_motion_ddot": 0,
        "tle_line1": "1 66974U 25288R   25355.83335647 -.01171263  00000+0 -82250-2 0  9997",
        "tle_line2": "2 66974  43.0007 111.4587 0001534 281.4376 114.5034 15.75979884  3294"
      },
      "geometry": {
        "type": "Point",
        "coordinates": [
          -57.10904305699325,
          -12.631756025323588
        ]
      }
    },
    {
      "type": "Feature",
      "properties": {
        "norad_id": 66975,
        "name": "STARLINK-35777",
        "group": "last-30-days",
        "lat": -15.150043920682062,
        "lon": -54.14354027499652,
        "alt_km": 346.1715177345495,
        "timestamp": "2025-12-22T05:49:02.188207+00:00",
        "meta_object_name": "STARLINK-35777",
        "meta_object_id": "2025-288S",
        "meta_epoch": "2025-12-21T20:00:01.999008",
        "meta_mean_motion": 15.75751755,
        "meta_eccentricity": 0.0001895,
        "meta_inclination": 43.0007,
        "meta_ra_of_asc_node": 111.4483,
        "meta_arg_of_pericenter": 280.884,
        "meta_mean_anomaly": 119.0711,
        "meta_ephemeris_type": 0,
        "meta_classification_type": "U",
        "meta_norad_cat_id": 66975,
        "meta_element_set_no": 999,
        "meta_rev_at_epoch": 329,
        "meta_bstar": -0.0065852,
        "meta_mean_motion_dot": -0.00935392,
        "meta_mean_motion_ddot": 0,
        "tle_line1": "1 66975U 25288S   25355.83335647 -.00935392  00000+0 -65852-2 0  9997",
        "tle_line2": "2 66975  43.0007 111.4483 0001895 280.8840 119.0711 15.75751755  3296"
      },
      "geometry": {
        "type": "Point",
        "coordinates": [
          -54.14354027499652,
          -15.150043920682062
        ]
      }
    }
  ]
}